[{"OBJECT_NAME":"STARLINK-3636","OBJECT_ID":"2022-025AR","EPOCH":"2026-03-09T06:41:11.659488","MEAN_MOTION":15.08837899,"ECCENTRICITY":0.00015199,"INCLINATION":53.2194,"RA_OF_ASC_NODE":20.9662,"ARG_OF_PERICENTER":91.0542,"MEAN_ANOMALY":269.0625,"EPHEMERIS_TYPE":0,"CLASSIFICATION_TYPE":"U","NORAD_CAT_ID":51995,"ELEMENT_SET_NO":999,"REV_AT_EPOCH":22084,"BSTAR":-2.7162514e-5,"MEAN_MOTION_DOT":-7.2e-6,"MEAN_MOTION_DDOT":0},{"OBJECT_NAME":"OOV-CUBE (TUBSAT-30)","OBJECT_ID":"2024-128F","EPOCH":"2026-03-09T23:05:47.786496","MEAN_MOTION":15.02254773,"ECCENTRICITY":0.00544595,"INCLINATION":61.9946,"RA_OF_ASC_NODE":211.4347,"ARG_OF_PERICENTER":112.4275,"MEAN_ANOMALY":248.2597,"EPHEMERIS_TYPE":0,"CLASSIFICATION_TYPE":"U","NORAD_CAT_ID":60240,"ELEMENT_SET_NO":999,"REV_AT_EPOCH":9120,"BSTAR":0.00032902554,"MEAN_MOTION_DOT":4.289e-5,"MEAN_MOTION_DDOT":0}]
